[{"OBJECT_NAME":"BRITE-PL2 (HEWELIUSZ)","OBJECT_ID":"2014-049B","EPOCH":"2026-03-09T20:58:34.162464","MEAN_MOTION":14.94186201,"ECCENTRICITY":0.00154454,"INCLINATION":97.8982,"RA_OF_ASC_NODE":180.2053,"ARG_OF_PERICENTER":80.5248,"MEAN_ANOMALY":279.7716,"EPHEMERIS_TYPE":0,"CLASSIFICATION_TYPE":"U","NORAD_CAT_ID":40119,"ELEMENT_SET_NO":999,"REV_AT_EPOCH":62661,"BSTAR":0.00026097212,"MEAN_MOTION_DOT":2.742e-5,"MEAN_MOTION_DDOT":0},{"OBJECT_NAME":"STARLINK-5006","OBJECT_ID":"2023-014AH","EPOCH":"2026-03-09T11:25:06.686112","MEAN_MOTION":14.98328976,"ECCENTRICITY":0.00031212,"INCLINATION":69.9989,"RA_OF_ASC_NODE":84.8535,"ARG_OF_PERICENTER":271.6156,"MEAN_ANOMALY":88.4645,"EPHEMERIS_TYPE":0,"CLASSIFICATION_TYPE":"U","NORAD_CAT_ID":55422,"ELEMENT_SET_NO":999,"REV_AT_EPOCH":17153,"BSTAR":2.3864353e-5,"MEAN_MOTION_DOT":1.92e-6,"MEAN_MOTION_DDOT":0}]
