BRITE-PL2 (HEWELIUSZ)   
1 40119U 14049B   26068.87400651  .00002742  00000+0  26097-3 0  9997
2 40119  97.8982 180.2053 0015445  80.5248 279.7716 14.94186201626611
STARLINK-5006           
1 55422U 23014AH  26068.47577183  .00000192  00000+0  23864-4 0  9990
2 55422  69.9989  84.8535 0003121 271.6156  88.4645 14.98328976171537
